#dP2022 11 30 18  0  0.00000000      96 __u+U ITR00 EXT  IAC
## 2238 324000.00000000   900.00000000 59913 0.7500000000000
+  117   C06C07C08C09C10C11C12C13C14C16C19C20C21C22C23C24C25
+        C26C27C28C29C30C32C33C34C35C36C37C38C39C40C41C42C43
+        C44C45C46E01E02E03E04E05E07E09E10E11E12E13E14E15E18
+        E19E21E24E25E26E27E30E31E33E34E36G01G02G03G04G05G06
+        G07G08G09G10G11G12G13G14G15G16G17G18G19G20G21G22G23
+        G24G25G26G27G29G30G31G32J02J03J04R01R02R03R04R05R07
+        R08R09R11R12R13R14R15R17R18R19R20R21R22R24R25  0  0
++         9 10 11  9  7  8  9 12  9 10  8  8  8  7  9 10  9
++         8  9  8  8  8 10  8  8 10  7  9 10 11 10  9  7  8
++         8  9 10  8  8  8  7  9  7  8 10  9  8  8  9  7  7
++         9  8  8  8  8  6  7  8  8  9  9  6  7  8  7  7  8
++         7  9  7  8  7  9  8  8  8  9  7  7  7  7  7  7  6
++         8  9  8  7  7  8  7  7  9 10 10  8  8  8  8  8  9
++         9 10  8  9 10  9  9  7  8  8  8  6  7  7  8  0  0
%c M  cc GPS ccc cccc cccc cccc cccc ccccc ccccc ccccc ccccc
%c cc cc ccc ccc cccc cccc cccc cccc ccccc ccccc ccccc ccccc
%f  0.0000000  0.000000000  0.00000000000  0.000000000000000
%f  0.0000000  0.000000000  0.00000000000  0.000000000000000
%i    0    0    0    0      0      0      0      0         0
%i    0    0    0    0      0      0      0      0         0
/* IAC                                ULTRA-RAPID PREDICTION
/* S/V CLOCKS ARE ALIGNED TO GNSS TIME                      
/* G:C1WC2W R:C1PC2P E:C1XC5X C:C2IC6I J:C1CC2S             
/* PCV:IGS14_2233 OL/AL:FES2004  NONE     YN ORB:CoN CLK:CoN
*  2022 12 01  9 30  0.00000000
PC06 -16986.806930  32343.671042  20857.296737    226.099619
PC07  -4007.645089  38679.856000  16534.402894    137.610995
PC08  -5421.151212  20052.714377 -36685.003746    518.464978
PC09  -9872.122673  30818.113564  27120.016448   -793.552723
PC10   2042.560589  41086.079783  10668.544111     59.194757
PC11  19432.450540 -19988.884484    890.327043   -261.112385
PC12  21873.542357  -7451.837097 -15588.276310    325.710262
PC13   3167.696217  23540.359383 -34629.228209    147.139855
PC14   8608.323625 -18013.032817  19490.184471    224.956014
PC16 -21658.520752  32026.881860  16673.323123    108.836534
PC19  -1893.724386  24645.588357 -12944.078974   -907.995080
PC20 -12919.612385  10381.140586 -22448.049983    820.441377
PC21  16957.888053  11284.454352  19089.487160   -935.032729
PC22  10694.066015  25394.275197   4467.638886   -763.931873
PC23 -13628.450787 -16563.233472 -17856.717213   -873.631471
PC24  24191.378246  -3966.873800 -13318.623454   -733.690803
PC25   5982.846184 -15283.567622 -22577.756917     32.863229
PC26  26834.326790   7319.847377   1968.877001    -43.624175
PC27 -18900.179353   -996.116255  20488.441093     59.607923
PC28  -5451.107802 -16283.364982  22004.331530     42.218947
PC29 -11603.682576  23303.757864 -10054.019773     47.832085
PC30 -21672.378104  15599.592824   8070.637233      1.121084
PC32 -17039.079891 -11247.736132 -19014.210207   -698.152713
PC33   1859.103217 -24594.561924  13045.337623   -901.358320
PC34  21479.090616 -16415.803457  -6970.918835     51.368384
PC35   4635.885115  17220.037667 -21461.121596    113.081028
PC36  -7092.801621  14911.550929  22516.288767   -800.188929
PC37 -26302.511428  -8780.917234  -3264.435719   -898.755418
PC38 -14027.533851  19266.685773 -34783.867433     41.918194
PC39 -23409.323060  32802.461219  12081.936107     -0.970598
PC40  -8718.642613  35635.609189  20965.270545     -9.245067
PC41 -10443.004946 -25587.071625  -3847.306660   -333.181547
PC42  13546.878103  -9070.862762  22684.135971   -766.946090
PC43  12256.002398 -23282.090539   9325.489158     27.840972
PC44  18941.084166    575.784617 -20502.206177    131.134628
PC45  13990.006811  16401.773637  17701.468279    -29.193412
PC46 -23175.149744   5096.808284  14717.960099    -16.631753
PE01 -17948.676127 -22914.715314  -5414.332019   -573.696983
PE02  18103.074582  22826.502111   5164.545859      5.901613
PE03   8057.264685  21538.771383  18630.303623   -625.407816
PE04 -17046.065639  -1917.650699 -24124.608811     -4.603973
PE05  -5876.020515  28935.952113   2052.998719   -119.359519
PE07  16174.764727 -19368.967951  15466.909907     -3.658425
PE09 -16110.503447  19253.237050 -15693.784086   -748.410742
PE10 -28699.511386   7036.716813   1831.734861   -494.675058
PE11 -25131.860974  12989.470041  -8701.788171   1070.408043
PE12 -27455.711774    342.407979  11046.977340   -307.172937
PE13  25615.963497 -12585.744100   7855.378559    430.490464
PE14  17056.197342  11180.766792 -23990.335958     72.099730
PE15  27344.403677   -241.503611 -11319.102395    703.862371
PE18 -17931.239107   4604.291734  17629.138566   -679.779910
PE19  -6150.200143 -23466.868696 -16968.326279  -3856.606355
PE21  -2791.420596 -21761.547741 -19874.179193   -497.794267
PE24 -15936.620466   7261.047895  23856.008065   -977.443945
PE25   2472.982616  21626.232638  20059.735049   -593.934071
PE26   7935.770566 -17527.098941  22500.325965  -1894.364142
PE27  15151.384601  -8172.025643 -24073.790867   -452.617799
PE30  24046.464086  10798.625590 -13452.864493  -1042.446330
PE31 -24015.023685 -10104.427602  14066.493885   -509.542505
PE33 -12915.785168 -12173.666662  23697.067188   -455.658987
PE34  13103.694733  12067.413966 -23636.882026    -17.377163
PE36  -8903.421094  17416.903828 -22208.272303   -468.866340
PG01   4890.615285  14036.682584 -22340.002523    243.897598
PG02  -8216.758639 -13440.171554  21996.076312   -635.267529
PG03  10392.414955  22311.338399 -10245.767835   -374.833660
PG04   1483.859510  22773.906217  13500.138114    -76.695918
PG05   1235.181133 -18023.100813  19255.968270   -106.385911
PG06  25844.861574  -6098.102771   1672.363350    530.787300
PG07  19765.653690   8128.907485  16494.992347    280.464499
PG08  -5587.987958  25558.700658  -3231.981977    -96.468214
PG09  10438.934503  13920.763580  19974.218870   -260.403736
PG10 -20278.182325  -6858.579738 -15765.097721    -14.192992
PG11  19761.691293 -12017.058935  13032.683247    -48.865740
PG12  -8000.285242 -23004.374425 -10991.096013   -310.702312
PG13  13224.889365 -22765.920195   2440.499206    434.268363
PG14  20565.265514   9031.114919 -14258.966021    -75.165006
PG15   2121.598925 -26098.096987  -3868.439371     -7.827996
PG16  -7325.612915  14261.683901  20802.096785   -526.639385
PG17  15506.375057   -179.661947 -21134.124962    682.387959
PG18 -21241.309110  -6361.955827  14729.332685    -42.310558
PG19  17543.388454 -11187.400030 -16584.191653    244.633926
PG20  12344.619651  -9806.572770  21374.864275    466.475624
PG21  -4162.644457  15834.442588 -20136.202400    154.861256
PG22 -16867.261491  14580.804151 -13877.137363    375.687309
PG23 -20642.339529 -15436.598890  -6709.638664     -0.545881
PG24  -1098.838583 -16134.690673 -21369.003921     35.526859
PG25 -16647.644195 -20811.430805  -2121.995739    397.873547
PG26 -16103.197022   5175.075988  20446.159699    237.314367
PG27 -12686.607520  21787.935223   7441.880499    164.784036
PG29  -7401.954040 -16267.076870  19578.349872   -570.987254
PG30  25948.602289    -88.476669   6358.552704   -536.071177
PG31 -25809.776008   6604.501731   2854.593326   -201.905509
PG32 -16321.969465   3743.878000 -20417.165134   -314.512005
PJ02 -25819.658677  22049.831423  30070.757898     -0.228969
PJ03 -34818.673666  23139.521615   -596.797118     -5.721104
PJ04 -20357.166899  26705.901095 -20371.511263    114.096080
PR01  -5736.896524  18356.885934 -16764.159167     18.786678
PR02   2808.277296  25302.538751    831.465621    -23.407132
PR03   9686.572679  16638.829352  16735.533397     68.258777
PR04  10753.541147   -938.141519  23133.535599    166.927656
PR05   6197.712984 -18096.494133  16897.673082    103.820944
PR07  -9811.459814 -16120.865572 -17158.551835     45.291234
PR08 -10828.453313   1105.185405 -23017.665420    -68.364115
PR09  -8194.680158 -13965.884727 -19667.611622     90.588492
PR11 -22842.664824  -4387.766926  10465.150922     17.711146
PR12 -10257.846292   7130.728920  22265.310901     23.286914
PR13   6624.262225  13540.049972  20559.532116    -29.491025
PR14  21484.753334  12436.032116   5907.071327     24.057656
PR15  22490.763436   3969.772895 -11343.446543     92.625467
PR17  11374.748319   4375.593242 -22386.306277    582.981982
PR18  20869.870117  -7850.666261 -12410.364339     54.651528
PR19  20452.136599 -14992.972755   2723.281835   -212.974179
PR20   6160.690280 -14673.908784  19961.768412    -83.151286
PR21 -12666.569351  -3145.132010  21929.088095   -354.011318
PR22 -21451.417189   7322.057230  11720.460186     19.674878
PR24  -4882.983599  14937.361552 -20074.958450    129.928044
PR25 -11012.904881  -5444.000643  22367.627265     47.739127
EOF
